#cP2022  4  1 18  0  0.00000000     576 d+D   IGb14 EXT AIUB
## 2203 496800.00000000   300.00000000 59670 0.7500000000000
+   75   G01G02G03G04G05G07G08G09G10G11G12G13G14G15G16G17G18
+        G19G20G21G22G23G24G25G26G27G28G29G30G31G32R01R02R03
+        R04R05R07R08R09R12R13R14R15R17R18R19R21R22R24E01E02
+        E03E04E05E07E08E09E10E11E12E13E14E15E18E19E21E24E25
+        E26E27E30E31E33E34E36  0  0  0  0  0  0  0  0  0  0
++         5  7  6  9  7  8  6  8  5  9  7  7  7  7  7  8  8
++         7  7  7  7  7  6  6  7  6  7  7  9  7  6  7  7  7
++         7  8  7  7  7  7  8  8  8  8  7  8  8  8  8  6  7
++         5  9  5  6  6  6  9  5  7  6  7  8  6  7  6  5  6
++         6  6  6  7  8  7  9  0  0  0  0  0  0  0  0  0  0
%c M  cc GPS ccc cccc cccc cccc cccc ccccc ccccc ccccc ccccc
%c cc cc ccc ccc cccc cccc cccc cccc ccccc ccccc ccccc ccccc
%f  1.2500000  1.025000000  0.00000000000  0.000000000000000
%f  0.0000000  0.000000000  0.00000000000  0.000000000000000
%i    0    0    0    0      0      0      0      0         0
%i    0    0    0    0      0      0      0      0         0
/* Center for Orbit Determination in Europe (CODE)          
/* Ultra-rapid GRE orbits starting year-day 22091 18 hour   
/* Observed/predicted: 24/24 hours (data used up to 092R)   
/* PCV:IGS14      OL/AL:FES2014b NONE     YN ORB:CoN CLK:BRD
*  2022  4  3  9 40  0.00000000
PG01 -19247.724212  -9664.322808  15488.012459    393.715262               P   P
PG02  14388.672547  21890.250641   4530.356625   -652.876361               P   P
PG03 -16174.439910   1231.301907  20903.827026   -191.212508               P   P
PG04 -26249.056135  -1198.816291   4181.965346   -178.893559               P   P
PG05   9154.793403  14936.960869 -20080.686606    -76.962745               P   P
PG07 -13787.931866   6810.615570 -21292.941125    318.914723               P   P
PG08 -22068.005559  -6754.681257 -13489.882096    -62.394958               P   P
PG09 -24666.342762   7555.264597  -6452.125153   -346.069508               P   P
PG10  11409.786389 -23778.232299  -1040.541559   -366.973344               P   P
PG11  12510.680611  23264.745741   2848.753358    -54.649428               P   P
PG12  14825.633568   3539.457941  21469.201526   -194.646068               P   P
PG13  14606.287538  13012.554054 -18193.948269    287.675342               P   P
PG14 -13068.496487  22984.351928  -2024.654343    -99.595785               P   P
PG15  23013.740068   4722.458514 -13097.249289    -71.841151               P   P
PG16  -4147.530603 -18598.841185 -18573.692006   -487.759906               P   P
PG17 -12823.863037  13515.117114  19382.166669    595.528317               P   P
PG18  13519.234188  -6711.548029 -21864.681742    204.678934               P   P
PG19  -5045.756493  14408.623230  21449.174498    139.459597               P   P
PG20   3977.735774  22641.304381 -13500.403258    516.000642               P   P
PG21 -20341.020613 -16443.443821   6972.523337    160.086918               P   P
PG22   1404.344389 -15385.288655  22006.605082    237.476362               P   P
PG23  16047.084283 -17604.819170 -11655.594890    -12.045868               P   P
PG24  20971.757470  11906.548639  11279.098988    261.286270               P   P
PG25  17435.214001 -11079.441785  16249.342970    306.988894               P   P
PG26   2837.533091 -24829.254457  -8611.424334    195.790658               P   P
PG27 -11652.881356 -12820.027987 -20448.967322    173.368994               P   P
PG28  -8119.198010  24483.937616   7325.029049    374.116324               P   P
PG29  25705.598789  -4240.274858  -5381.285759   -498.810799               P   P
PG30  -7414.766290  15394.862168 -20203.027019   -521.983107               P   P
PG31  -3004.654153 -22008.310147  14079.016143   -171.783167               P   P
PG32   9134.527292 -15086.154707  19942.121309    -97.636975               P   P
PR01 -18058.165091  16214.449221  -7822.099734      7.523224               P   P
PR02  -1977.490290  13173.467077 -21717.710120    514.437361               P   P
PR03  14355.942263   2766.665061 -20837.632941     54.303393               P   P
PR04  22317.543335  -9046.898513  -8365.841153    134.872673               P   P
PR05  18049.569151 -15752.080263   8746.233061     90.526195               P   P
PR07 -14971.611369  -2257.454619  20585.852487     33.395365               P   P
PR08 -22352.738415   9093.967166   8364.585215    -64.417636               P   P
PR09  -3100.693751 -25077.374293  -3750.473905     47.770198               P   P
PR12  -5705.441080  20885.418291 -13484.136124     17.748258               P   P
PR13   2389.811599  25268.134245   2541.612357    -20.302832               P   P
PR14   9586.345706  14558.890803  18623.203291     76.070428               P   P
PR15  10775.402725  -4197.935301  22750.485351     97.072767               P   P
PR17  21692.526832  13191.553620   2637.071148    514.499731               P   P
PR18  20976.171997   4619.332163 -13699.174146    112.333307               P   P
PR19  10479.409664  -5449.660626 -22608.961980   -183.953743               P   P
PR21 -22050.707538 -12754.246503  -1139.529313   -290.378269               P   P
PR22 -20664.904455  -4277.586712  14393.212954   -174.590190               P   P
PR24   9898.771798  15181.004244  17968.233809     87.344907               P   P
PE01   7521.531560 -28558.547558  -1940.258178   -609.168743               P   P
PE02  -7429.408445  28587.444584   2081.287942    290.419672               P   P
PE03  -7955.932342  17899.246312 -22185.580780   -544.080429               P   P
PE04 -13851.550244 -13184.314020  22604.569269   -998.438119               P   P
PE05 -25531.787569  12180.699836  -8706.358232   -194.352590               P   P
PE07  27992.207150    521.565571  -9612.494925   -654.826147               P   P
PE08  14229.757608  12823.274067 -22563.016870   -505.994029               P   P
PE09 -28027.316242   -251.688581   9504.898745   -471.367953               P   P
PE10 -22387.342194 -18636.542714   5266.718471   -504.379945               P   P
PE11 -23309.856813 -10859.759108  14671.883860   4061.304827               P   P
PE12 -17871.696046 -23193.464192  -4434.774880   4681.562667               P   P
PE13  23356.357859  11394.350848 -14154.700988    427.761916               P   P
PE14   7443.936520 -20201.303002 -23999.846570  -1800.845614               P   P
PE15  17830.651429  23166.015243   4607.642788    753.922815               P   P
PE18   3456.802235  15222.805558  18444.416409  -1608.687012               P   P
PE19  10688.062286 -17635.468483  21244.438475  -2388.265510               P   P
PE21  16641.085099 -19340.946499  14995.305124   -726.278040               P   P
PE24 -16520.615464  -3017.061055 -24393.826757   -540.498419               P   P
PE25 -16720.591380  19124.024598 -15201.386273   -569.065440               P   P
PE26  14551.312558  -7954.536342 -24513.949531   -986.834470               P   P
PE27  16818.682359   1564.046371  24304.077158   -267.723972               P   P
PE30   6339.502341  22173.471707  18551.655419   -400.465756               P   P
PE31  -7102.746068 -21348.728661 -19228.826610   -494.496746               P   P
PE33  -1837.791191 -21229.537763 -20547.609580   -457.961783               P   P
PE34   2051.773511  21311.726414  20433.949992   -510.127807               P   P
PE36 -15139.397290   6969.246132  24467.320745   -354.360885               P   P
EOF
